{
  "norad_id": 54073,
  "name": "STARLINK-5146",
  "history": [
    {
      "epoch": "2026-03-28T20:43:30.316512Z",
      "apogee_km": 540.5761337286649,
      "perigee_km": 538.9129366499756,
      "latitude_deg": -6.602363999496006e-05,
      "longitude_deg": 115.5509470796217,
      "height_km": 540.6193297081372,
      "semi_major_axis_km": 6917.88153518932,
      "eccentricity": 0.00012021,
      "inclination_deg": 53.2164,
      "raan_deg": 252.7052,
      "arg_perigee_deg": 88.5507,
      "mean_anomaly_deg": 271.5622,
      "mean_motion_rev_day": 15.08839625
    },
    {
      "epoch": "2026-03-28T22:18:53.271936Z",
      "apogee_km": 540.5607015119922,
      "perigee_km": 538.9142473870734,
      "latitude_deg": -1.786153382529932e-05,
      "longitude_deg": 91.34314820145215,
      "height_km": 540.5834879172618,
      "semi_major_axis_km": 6917.8744744495325,
      "eccentricity": 0.000119,
      "inclination_deg": 53.2165,
      "raan_deg": 252.4083,
      "arg_perigee_deg": 86.5292,
      "mean_anomaly_deg": 273.5836,
      "mean_motion_rev_day": 15.08841935
    },
    {
      "epoch": "2026-03-30T02:55:49.984320Z",
      "apogee_km": 540.5770967930484,
      "perigee_km": 538.9127927547752,
      "latitude_deg": 2.80354594030706e-05,
      "longitude_deg": 15.578674115067402,
      "height_km": 540.5860864004528,
      "semi_major_axis_km": 6917.8819447739115,
      "eccentricity": 0.00012029,
      "inclination_deg": 53.2167,
      "raan_deg": 247.0553,
      "arg_perigee_deg": 86.2306,
      "mean_anomaly_deg": 273.8824,
      "mean_motion_rev_day": 15.08839491
    },
    {
      "epoch": "2026-03-30T10:52:45.678144Z",
      "apogee_km": 540.5801348658288,
      "perigee_km": 538.9138933221957,
      "latitude_deg": 1.3003275565434389e-05,
      "longitude_deg": -105.46644005298201,
      "height_km": 540.5911002469597,
      "semi_major_axis_km": 6917.884014094012,
      "eccentricity": 0.00012043,
      "inclination_deg": 53.2162,
      "raan_deg": 245.5687,
      "arg_perigee_deg": 86.4416,
      "mean_anomaly_deg": 273.6714,
      "mean_motion_rev_day": 15.08838814
    },
    {
      "epoch": "2026-03-31T17:05:05.814240Z",
      "apogee_km": 540.614362245562,
      "perigee_km": 538.909791912969,
      "latitude_deg": -1.9584240580310936e-05,
      "longitude_deg": 154.56063730797592,
      "height_km": 540.6351829390449,
      "semi_major_axis_km": 6917.899077079265,
      "eccentricity": 0.0001232,
      "inclination_deg": 53.2169,
      "raan_deg": 239.9202,
      "arg_perigee_deg": 88.4721,
      "mean_anomaly_deg": 271.6412,
      "mean_motion_rev_day": 15.08833886
    },
    {
      "epoch": "2026-04-01T02:37:24.830688Z",
      "apogee_km": 540.6735040755402,
      "perigee_km": 538.8592147405025,
      "latitude_deg": -2.8509327134324066e-05,
      "longitude_deg": 9.305458984479417,
      "height_km": 540.6471611807083,
      "semi_major_axis_km": 6917.903359408021,
      "eccentricity": 0.00013113,
      "inclination_deg": 53.2163,
      "raan_deg": 238.136,
      "arg_perigee_deg": 89.0616,
      "mean_anomaly_deg": 271.0526,
      "mean_motion_rev_day": 15.08832485
    },
    {
      "epoch": "2026-04-02T18:22:02.426304Z",
      "apogee_km": 540.5184230217956,
      "perigee_km": 538.9425328103271,
      "latitude_deg": 2.9445189301740855e-05,
      "longitude_deg": 124.08203640383354,
      "height_km": 540.6175413510291,
      "semi_major_axis_km": 6917.867477916061,
      "eccentricity": 0.0001139,
      "inclination_deg": 53.2168,
      "raan_deg": 230.7014,
      "arg_perigee_deg": 89.3543,
      "mean_anomaly_deg": 270.758,
      "mean_motion_rev_day": 15.08844224
    },
    {
      "epoch": "2026-04-03T15:02:03.351552Z",
      "apogee_km": 540.7099067830259,
      "perigee_km": 538.7563002657907,
      "latitude_deg": 1.68345121272038e-05,
      "longitude_deg": 169.36351154879878,
      "height_km": 540.5933213592199,
      "semi_major_axis_km": 6917.870103524408,
      "eccentricity": 0.0001412,
      "inclination_deg": 53.215,
      "raan_deg": 226.8355,
      "arg_perigee_deg": 87.9371,
      "mean_anomaly_deg": 272.1783,
      "mean_motion_rev_day": 15.08843365
    },
    {
      "epoch": "2026-04-05T14:43:37.829856Z",
      "apogee_km": 540.5396046295364,
      "perigee_km": 539.005212322736,
      "latitude_deg": -1.0730674720172798e-05,
      "longitude_deg": 163.0899511329576,
      "height_km": 540.6467879118496,
      "semi_major_axis_km": 6917.909408476136,
      "eccentricity": 0.0001109,
      "inclination_deg": 53.2158,
      "raan_deg": 217.9143,
      "arg_perigee_deg": 88.3942,
      "mean_anomaly_deg": 271.7177,
      "mean_motion_rev_day": 15.08830506
    },
    {
      "epoch": "2026-04-05T14:43:37.830720Z",
      "apogee_km": 540.5393970922551,
      "perigee_km": 539.0054198600192,
      "latitude_deg": -7.961769451272612e-06,
      "longitude_deg": 163.0899495819604,
      "height_km": 540.6467937274685,
      "semi_major_axis_km": 6917.909408476136,
      "eccentricity": 0.00011087,
      "inclination_deg": 53.2158,
      "raan_deg": 217.9143,
      "arg_perigee_deg": 88.3942,
      "mean_anomaly_deg": 271.7177,
      "mean_motion_rev_day": 15.08830506
    },
    {
      "epoch": "2026-04-07T14:25:10.746048Z",
      "apogee_km": 540.4546676649588,
      "perigee_km": 538.8525073648898,
      "latitude_deg": 5.080664699775535e-05,
      "longitude_deg": 156.82388073098795,
      "height_km": 540.4315830289356,
      "semi_major_axis_km": 6917.790587514924,
      "eccentricity": 0.0001158,
      "inclination_deg": 53.218,
      "raan_deg": 208.994,
      "arg_perigee_deg": 81.524,
      "mean_anomaly_deg": 278.5884,
      "mean_motion_rev_day": 15.0886938
    },
    {
      "epoch": "2026-04-07T17:35:58.044480Z",
      "apogee_km": 540.6436238277329,
      "perigee_km": 538.8878601118213,
      "latitude_deg": -4.3635609666430186e-05,
      "longitude_deg": 108.40104336754058,
      "height_km": 540.656777297578,
      "semi_major_axis_km": 6917.902741969777,
      "eccentricity": 0.0001269,
      "inclination_deg": 53.2174,
      "raan_deg": 208.3989,
      "arg_perigee_deg": 89.6867,
      "mean_anomaly_deg": 270.427,
      "mean_motion_rev_day": 15.08832687
    },
    {
      "epoch": "2026-04-08T11:05:13.304256Z",
      "apogee_km": 540.6104606624085,
      "perigee_km": 538.9360496642485,
      "latitude_deg": 2.4790881834059765e-05,
      "longitude_deg": -157.9021794325853,
      "height_km": 540.6384514997416,
      "semi_major_axis_km": 6917.910255163329,
      "eccentricity": 0.00012102,
      "inclination_deg": 53.2164,
      "raan_deg": 205.1274,
      "arg_perigee_deg": 87.9051,
      "mean_anomaly_deg": 272.208,
      "mean_motion_rev_day": 15.08830229
    },
    {
      "epoch": "2026-04-09T18:52:55.815168Z",
      "apogee_km": 540.6605495482072,
      "perigee_km": 538.8314612815766,
      "latitude_deg": -4.97770543485981e-05,
      "longitude_deg": 77.9181522939426,
      "height_km": 540.6464412968638,
      "semi_major_axis_km": 6917.883005414892,
      "eccentricity": 0.0001322,
      "inclination_deg": 53.2172,
      "raan_deg": 199.1807,
      "arg_perigee_deg": 90.2939,
      "mean_anomaly_deg": 269.8204,
      "mean_motion_rev_day": 15.08839144
    },
    {
      "epoch": "2026-04-09T23:39:05.414976Z",
      "apogee_km": 540.707461580173,
      "perigee_km": 538.8001990782514,
      "latitude_deg": 7.545951291722238e-06,
      "longitude_deg": 5.290225579088478,
      "height_km": 540.6038655676116,
      "semi_major_axis_km": 6917.890830329212,
      "eccentricity": 0.00013785,
      "inclination_deg": 53.2178,
      "raan_deg": 198.2886,
      "arg_perigee_deg": 87.2539,
      "mean_anomaly_deg": 272.8611,
      "mean_motion_rev_day": 15.08836584
    },
    {
      "epoch": "2026-04-11T12:12:57.725280Z",
      "apogee_km": 540.6622957874943,
      "perigee_km": 538.8415074285904,
      "latitude_deg": 1.9065463394739117e-05,
      "longitude_deg": 168.48201940965583,
      "height_km": 540.6059344549076,
      "semi_major_axis_km": 6917.888901608042,
      "eccentricity": 0.0001316,
      "inclination_deg": 53.2174,
      "raan_deg": 191.45,
      "arg_perigee_deg": 87.3726,
      "mean_anomaly_deg": 272.7417,
      "mean_motion_rev_day": 15.08837215
    }
  ]
}